TAF UUEE 200479Z 2009/2109 26006MPS 9999 BKN030 TX24/2012Z
     TN15/2102Z TEMPO 2009/2018  24012MPS 3100 -SHRA BKN020CB 
     TEMPO 2021/2109 VRB16MPS 1500 TSRA  SQ SCT005 BKN015CB=
TAF  AMD UUDD 261200Z 2613/2718 25005G12MPS 9999 SCT020 TX13/2712Z
     TN05/2700Z BECMG 2614/2616 22010G16MPS BECMG 2619/2621 5000
     -RA OVC008 TEMPO 2621/2708 25015G20MPS 2000 SHRA SCT004 BKN012CB
     BECMG  2708/2710 28009G17MPS 9999 NSW=
TAF UUDD 270754Z 2709/2815 27009G14MPS 9999 BKN011 TX15/2811Z
     TN05/2802Z TEMPO 2709/2715  27013G18MPS 3100 -SHRA SCT007
     BKN015CB     BECMG 2804/2806  21010G15MPS TEMPO 2806/2815 23015G22MPS 3100 -SHRA SCT006 BKN012CB=

TAF UUDD 271052Z 2712/2818  27010G16MPS 9999 BKN015  TX15/2811Z   TN05/2802Z 
TEMPO 2712/2715  27016G23MPS  -SHRA  SCT015CB PROB40 TEMPO 2712/2715 -TSRA 
 SCT015CB   FM280500  21010G15MPS 5000 -RA OVC011 TEMPO  2805/2815 23016G22MPS 2000  SHRA BKN006 BKN012CB 
 BECMG 2815/2817 30009G14MPS=

TAF UUDD 271648Z 2718/2824 27009G14MPS 9999 SCT015  TX15/2811Z
     TN05/2801Z   FM280400  21010G16MPS 6000 -RA OVC011  TEMPO 2804/2815 23017G24MPS 2000  -SHRA
     BKN006  SCT015CB  PROB40  TEMPO  2804/2809 -TSRA  SCT015CB  BECMG 2815/2817 29008G13MPS=


TAF UUDD 271951Z  2721/2906 22008MPS 9999 SCT015  TX15/2811Z
     TN05/2801Z   FM280400  22011G17MPS 6000 -RA OVC011  TEMPO 2804/2815 22017G24MPS 2000   SHRA
     BKN006  SCT015CB  PROB40  TEMPO  2804/2809 -TSRA  SCT015CB  FM281600   29008G13MPS 9999  SCT015=


TAF  COR UUDD 272002Z  2721/2903  22008MPS 9999 SCT015  TX15/2811Z
     TN05/2801Z   FM280400  22011G17MPS 6000 -RA OVC011  TEMPO 2804/2815 22017G24MPS 2000   SHRA
     BKN006  SCT015CB  PROB40  TEMPO  2804/2809 -TSRA  SCT015CB  FM281600   29008G13MPS 9999  SCT015=

TAF  UUDD 272250Z  2800/2906  23008MPS 9999 SCT012 TX14/2812Z
     TN03/2903Z   FM280300  22011G17MPS 6000 -RA OVC011  TEMPO 2803/2815 23017G24MPS 3100  -SHRA
     SCT006  SCT015CB  PROB40  TEMPO  2803/2815  -TSRA  SCT015CB  FM281600   29008G14MPS 9999  SCT015=

TAF UUEE 2800800Z 2809/2909 22008G15MPS 6000 BKN011 TX14/2812Z
     TN03/2903Z TEMPO 2809/2816 20013G22MPS 3100 -SHRA BKN006
     BKN012CB FM281600 30008G15MPS 9000 SCT011 BECMG 2821/2823 29004MPS=

TAF UUEE 281700Z 2818/2918 27007G12MPS 9999 BKN011 TX09/2912Z
     TN03/2903Z BECMG 2820/2822 34005MPS=

TAF UUEE 282000Z 2821/2921 27008MPS 9999 BKN011 TX09/2912Z
     TN03/2903Z TEMPO 2902/2905 3100 BR SCT007 BECMG 2911/2913 34004MPS=


TAF AYPY 210230Z 2106/2206 32008KT 9999 SCT018 SCT140
     FM210900 32005KT 9999 SCT040=

TAF BGSF 210702Z 2106/2212 06008KT 9999 FEW100
      TEMPO 2121/2212 34012KT 4000 -SN BKN020=

TAF BGTL 211000Z 2110/2216 11014KT 9999 BKN050 QNH2979INS WND
      060V140
      TEMPO 2110/2115 11020G30KT 530003
      BECMG 2121/2122 11009KT 5000 -SN OVC010 620109 QNH2950INS
      WND
      060V140
      BECMG 2205/2206 11009KT 9999 NSW FEW015 BKN150
      QNH2939INS
      BECMG 2207/2208 11009KT 9999 FEW015 QNH2907INS
      TXM18/2118Z
      TNM23/2110Z=

TAF BIAR 210810Z 2109/2209 16020G30KT 9999 BKN020 OVC065
      TX07/2115Z
      TN00/2206Z
      BECMG 2109/2111 13035G50KT 9999 SCT030 BKN045
      BECMG 2113/2115 16048G62KT
     FM211700 21015G25KT
      BECMG 2120/2122 VRB02KT CAVOK=

TAF BIEG 210810Z 2109/2209 16020G35KT 9999 FEW030 SCT055
      TX07/2121Z
      TNM00/2109Z
      BECMG 2110/2112 15035G50KT 9999 FEW015 BKN030
      TEMPO 2112/2209 RADZ BKN012
      BECMG 2203/2206 15025G40KT
      BECMG 2207/2209 22008KT=

TAF BIKF 210810Z 2109/2209 11045G70KT 1200 SNRA BKN005 OVC010
      TX06/2115Z TN00/2206Z
     FM210900 16040G60KT 2500 RA
     FM211200 19030G45KT 9999 NSW SCT012 BKN020
     FM211500 20020G30KT
      BECMG 2116/2118 22012KT
      TEMPO 2118/2206 22022G32KT 4000 SHRASN BKN010=

TAF BIRK 210810Z 2109/2209 10045G60KT 2000 SNRA BKN010 OVC015
      TX07/2115Z TN00/2206Z
     FM211100 16035G50KT 9999 NSW SCT015 BKN030
     FM211300 20015G25KT
      BECMG 2116/2118 18014KT
      TEMPO 2118/2209 19020G30KT 4000 SHRASN BKN010=

TAF BKPR 210530Z 2106/2206 14008KT 9999 BKN040 TEMPO 2116/2206 5000 RA PROB30 TEMPO 2200/2206 3000 -RASN BR BKN015=

TAF CWSA 210838Z 2109/2121 08010G20KT 6SM BR SCT005 OVC025 TEMPO
     2109/2114 2SM -RA BR OVC005 PROB40 2109/2114 1/2SM FG VV002
    FM211400 18015G25KT 1/2SM -RA FG VV002
     BECMG 2116/2118 22018G28KT
    RMK FCST BASED ON AUTO OBS. NXT FCST BY 211400Z=

TAF AMD CWWU 210905Z 2109/2206 04008KT P6SM OVC020
    FM211100 04010KT P6SM BKN020
    FM211500 10012KT P6SM BKN020
    FM211900 12018G25KT 6SM -SNIP OVC020
    FM212200 15020G30KT 6SM -RA OVC010
    FM220100 21022G32KT P6SM BKN010 OVC020
    RMK NXT FCST BY 211200Z=

TAF CYAM 210739Z 2108/2120 30015G25KT 4SM -SN OVC015 TEMPO 2108/2120
     P6SM NSW OVC025
     BECMG 2116/2118 30012KT
    RMK NXT FCST BY 211400Z=

TAF CYAT 210938Z 2110/2120 30010KT P6SM -SN OVC060 TEMPO 2110/2117
     3SM -SN BKN020 OVC040
    FM211700 28010KT P6SM SCT020 BKN060
    RMK FCST BASED ON AUTO OBS WND SENSORS INOP. NXT FCST BY 211400Z=

TAF CYAY 210738Z 2108/2120 VRB03KT P6SM SCT200
     BECMG 2108/2110 24008KT BKN100
    FM211200 24008KT 6SM -SN SCT015 OVC100 TEMPO 2112/2115 21/2SM -SN
     BECMG 2112/2113 15015KT
    FM211500 15015KT 21/2SM -SN OVC015
    FM211800 15015KT 11/2SM -SN OVC012
    RMK FCST BASED ON AUTO OBS. NXT FCST BY 211400Z=

TAF AMD CYBC 210722Z 2107/2114 11020G30KT 3SM -FZRA BR OVC005 TEMPO
     2107/2114 6SM BR SCT005 OVC010
    RMK FCST BASED ON AUTO OBS. NXT FCST BY 210800Z=

TAF CYBG 210530Z 2106/2206 10018G28KT 3SM -FZRA -SNPL BR OVC020 TEMPO
     2106/2112 6SM BR OVC025
     BECMG 2110/2112 10008KT
    FM211200 10008KT 2SM -FZRA BR BKN005 OVC030 TEMPO 2112/2115 5SM
     -SHRA BR SCT005 OVC015
    FM211500 24012KT 5SM -SHRA BR SCT008 BKN030 OVC080 PROB30
     2115/2118 10008KT WS005/24025KT 5SM -FZRA BR
    FM211800 30015G25KT 3SM -SHRA BR OVC010
    FM212000 30020G30KT P6SM BKN030 BKN250
    FM220300 30015KT P6SM SCT020
    RMK NXT FCST BY 211200Z=

TAF AMD CYBK 210835Z 2108/2118 VRB03KT 2SM IC SKC TEMPO 2108/2118
     P6SM IC
     BECMG 2116/2118 11010KT
    RMK NXT FCST BY 211200Z=

TAF CYBN 211015Z 2110/2122 35010G20KT 4SM -RA BR OVC010 TEMPO
     2110/2111 1SM -SHRA BR OVC003
     BECMG 2111/2113 5SM -FZRA BR OVC010
    FM211300 30012G24KT 5SM -FZRA BR OVC010 TEMPO 2113/2116 1SM -FZRA
     BR OVC003
    FM211600 30015G25KT P6SM BKN040 TEMPO 2116/2118 3SM -SHSN BKN020
    FM211800 32015G25KT P6SM SCT200
    RMK FCST BASED ON AUTO OBS. NXT FCST BY 211200Z=

TAF CYBR 210542Z 2106/2118 26012KT P6SM FEW040
    RMK NXT FCST BY 211200Z=

TAF CYBX 210738Z 2108/2120 30005KT P6SM BKN100
    FM211200 08010KT 6SM -SN SCT015 OVC100 TEMPO 2112/2118 21/2SM -SN
     PROB30 2116/2118 11/2SM -SN
    FM211800 07010KT 11/2SM -SN OVC012
    RMK NXT FCST BY 211400Z=

TAF CYCA 210738Z 2108/2120 ADVISORY OFFSITE 24010KT P6SM SKC
    FM210900 21010KT P6SM SCT150
    FM211200 21010KT P6SM BKN100
    FM211800 20010KT P6SM -SN OVC080
    RMK NXT FCST BY 211400Z=

TAF CYCB 210638Z 2107/2119 VRB03KT P6SM IC SCT009
     BECMG 2111/2113 09012KT
    RMK NXT FCST BY 211300Z=
    
TAF UUWW 220451Z 2206/2306 31003MPS 6000 BKN011 TXM09/2212Z
TNM16/2306Z TEMPO 2206/2209 BKN003=

TAF UUEE 220450Z 2206/2306 29003MPS 9999 SCT015 TXM09/2212Z
TNM17/2303Z=

TAF UUBW 220457Z 2206/2306 28005MPS 8000 BKN012
TXM10/2212Z TNM16/2305Z
TEMPO 2206/2215 3100 -SHSN BKN015CB=

TAF ULLI 220455Z 2206/2306 27003MPS 0300 FZFG VV001 TEMPO 2206/2209
1500 BR OVC002 BECMG 2209/2210 6000 NSW SCT011 BECMG 2215/2217 3100
BR BKN003 TEMPO 2217/2306 0400 FZFG VV001=

TAF UUDD 220457Z 2206/2312 30003MPS 8000 SCT020 TXM10/2212Z
TNM16/2305Z TEMPO 2206/2218 -SN OVC015=    