METAR UUEE 221200Z 27007MPS CAVOK 19/06 Q1015 WS R24C R24C/CLRD62
     R24L/CLRD62 NOSIG=
METAR UUEE 231030Z 26005MPS 230V300 CAVOK 19/06 Q1022 R24C/CLRD62
     R24L/CLRD62 NOSIG=
METAR UUEE 261300Z 26005MPS 230V300 CAVOK 19/06 Q1022 R24C/CLRD62
     R24L/CLRD62 NOSIG=
METAR UUEE 261330Z 22006MPS 9999 SCT041 11/03 Q1018 R24L/CLRD62
     R24C/CLRD62 NOSIG=
METAR UUEE 280530Z 18003MPS 9000 -SHRA BKN017CB 07/06 Q1002
     R24C/290045 R24L/290051 NOSIG=
METAR UUEE 280730Z 21008MPS 9000 -SHRA SCT006 BKN020CB 09/09
     Q0999 R24C/290045 R24L/290051 NOSIG=
SPECI UUEE 270845Z 02006MPS 2100 -SN OVC009 M04/M06 Q1008 R06L/590230
     R06R/590230 TEMPO 1000 SHSN BKN012CB=
SPECI UUEE 270844Z 02006MPS 2000 SN OVC010 M04/M06 Q1008 R06L/590230
     R06R/590230 TEMPO 1000 SHSN BKN012CB=
METAR COR UUEE 270830Z 01006MPS 2600 -SN BKN011 OVC040 M04/M06
     Q1008 R06L/590230 R06R/590230 TEMPO 1000 SHSN BKN012CB=
METAR UUEE 270830Z 01006MPS 2600 -SN BKN011 OVC018 M04/M06 Q1008
     R06L/590230 R06R/590230 TEMPO 1000 SHSN BKN012CB=
SPECI UUEE 270822Z 01006MPS 2100 -SN BKN010 OVC040 M04/M06 Q1008
     R06L/590230 R06R/590230 TEMPO 1000 SHSN BKN012CB=
SPECI UUEE 270804Z 01006MPS 2200 -SN OVC009 M04/M06 Q1007 R06L/590226
     R06R/590230 TEMPO 0700 +SHSN BKN012CB=
METAR UUEE 270800Z 01006MPS 2100 -SN OVC010 M04/M06 Q1007 R06L/590226
     R06R/590230 TEMPO 0700 +SHSN BKN012CB=
SPECI UUEE 270758Z 02006MPS 2000 SN OVC009 M04/M06 Q1007 R06L/590226
     R06R/590226 TEMPO 0700 +SHSN BKN012CB=
SPECI UUEE 270749Z 01006MPS 1300 1100NE R06L/1400U R06R/1400U
     SN OVC007 M04/M06 Q1007 R06L/590226 R06R/590226 TEMPO 0700
     +SHSN BKN012CB=
SPECI UUEE 270737Z 02006G11MPS 1500 1300NE R06L/1500U R06R/1500U
     SN OVC010 M05/M06 Q1007 R06L/590226 R06R/590226 TEMPO 0700
     +SHSN BKN012CB=
METAR UUEE 270730Z 02006MPS 1300 1200NE R06L/1500U R06R/1500U
     SHSN BKN008 BKN030CB M05/M06 Q1007 R06L/590226 R06R/590226
     TEMPO 0700 +SHSN BKN012CB=
SPECI UUEE 270722Z 01006MPS 1000 R06L/1300U R06R/1300U SHSN
     BKN007 BKN030CB M05/M06 Q1007 R06L/590226 R06R/590226 TEMPO
     0700 +SHSN BKN012CB=
SPECI UUEE 270716Z 02006MPS 1000 0900NE R06L/1000U R06R/1000U
     +SHSN BKN007 BKN030CB M05/M06 Q1007 R06L/590226 R06R/590226
     TEMPO 0700 +SHSN BKN012CB=
SPECI UUEE 270705Z 02006MPS 1400 1300NE R06L/1400U R06R/1400U
     SHSN BKN012 BKN030CB M05/M06 Q1007 R06L/590226 R06R/590226
     TEMPO 1000 SHSN BKN012CB=
METAR UUEE 270700Z 02006MPS 1800 R06L/1800U R06R/1800U SHSN
     BKN013 BKN030CB M05/M06 Q1007 R06L/590226 R06R/590226 TEMPO
     1000 SHSN BKN012CB=
SPECI UUEE 270651Z 02007MPS 1700 1400NE R06L/1800U R06R/1800U
     SHSN BKN009 BKN030CB M05/M06 Q1007 R06L/590226 R06R/590226
     TEMPO 1000 SHSN BKN012CB=
SPECI UUEE 270648Z 02007MPS 1600 1300NE R06L/1600U R06R/1600U
     SHSN BKN012 BKN030CB M05/M06 Q1007 R06L/590226 R06R/590226
     TEMPO 1000 SHSN BKN012CB=
SPECI UUEE 270639Z 02007MPS 1800 1400SW R06L/1400D R06R/1400D
     SHSN BKN013 BKN030CB M05/M07 Q1007 R06L/590226 R06R/590226
     TEMPO 1000 SHSN BKN012CB=
SPECI UUEE 270636Z 02006G11MPS 2300 R06L/1700D R06R/1700D -SHSN
     BKN010 BKN030CB M05/M07 Q1007 R06L/590226 R06R/590226 TEMPO
     1000 SHSN BKN012CB=
SPECI UUEE 270631Z 01005MPS 2900 -SN OVC012 M05/M07 Q1007 R06L/590226
     R06R/590226 TEMPO 1000 SHSN BKN012CB=
METAR UUEE 270630Z 01005MPS 3000 -SN OVC012 M05/M07 Q1007 R06L/590226
     R06R/590226 TEMPO 1000 SHSN BKN012CB=
SPECI UUEE 270614Z 02006MPS 3500 -SN OVC011 M05/M07 Q1007 R06L/590226
     R06R/590226 TEMPO 1000 SHSN BKN012CB=
SPECI UUEE 270606Z 01006MPS 2300 -SN OVC011 M05/M07 Q1006 R06L/590226
     R06R/590226 TEMPO 1000 SHSN BKN012CB=
METAR UUEE 270600Z 01006MPS 1900 SN OVC013 M05/M07 Q1007 R06L/590226
     R06R/590226 TEMPO 1000 SHSN BKN012CB=
SPECI UUEE 270548Z 01005MPS 1700 1400NE R06L/1700N R06R/1700N
     SN OVC010 M05/M06 Q1006 R06L/590226 R06R/590226 TEMPO 0700
     +SHSN BKN004 BKN012CB=
METAR UUEE 270530Z 01006MPS 1300 1200NE R06L/1300U R06R/1300U
     SN OVC009 M05/M06 Q1006 R06L/590226 R06R/590226 TEMPO 0700
     +SHSN BKN004 BKN012CB=
SPECI UUEE 270509Z 36006MPS 1300 R06L/1300D R06R/1300D SN OVC009
     M05/M06 Q1006 R06L/590230 R06R/590226 TEMPO 0700 +SHSN
     BKN004 BKN012CB=
METAR UUEE 270500Z 36005MPS 1600 R06R/1600D SN OVC010 M05/M06
     Q1006 R06R/590226 TEMPO 0700 +SHSN BKN004 BKN012CB=
SPECI UUEE 270451Z 36006MPS 1700 R06R/1700N SN OVC010 M05/M06
     Q1006 R06R/590226 TEMPO 0700 +SHSN BKN004 BKN012CB=
SPECI UUEE 270448Z 36005MPS 1600 R06R/1700N SN OVC007 M05/M06
     Q1006 R06R/590226 TEMPO 0700 +SHSN BKN004 BKN012CB=
SPECI UUEE 270437Z 36007MPS 1400 R06R/1400D SN OVC010 M04/M06
     Q1006 R06R/590230 TEMPO 0700 +SHSN BKN004 BKN012CB=
METAR UUEE 270430Z 35005MPS 1600 R06R/1600D -SN BR OVC008 M04/M06
     Q1006 R06R/590230 TEMPO 0700 +SHSN BKN004 BKN012CB=
SPECI UUEE 270426Z 36005MPS 1800 R06R/1800U -SN BR OVC015 M04/M05
     Q1006 R06R/590230 TEMPO 1000 SHSN SCT004 BKN012CB=
METAR UUEE 270400Z 36005G10MPS 2200 -SN BR OVC007 M04/M05 Q1006
     R06R/590230 TEMPO 1000 SHSN SCT004 BKN012CB=
METAR UUEE 270330Z 36004MPS 2900 -SN BR OVC009 M04/M05 Q1005
     R06L/520136 R06R/520145 TEMPO 1000 SHSN SCT004 BKN012CB=
METAR UUEE 270300Z 01005MPS 2700 -SN OVC009 M03/M04 Q1005 R06L/520140
     R06R/520145 TEMPO 1000 SHSN SCT004 BKN012CB=
SPECI UUEE 270255Z 02005MPS 2900 -SN OVC009 M03/M04 Q1005 R06L/520140
     R06R/520145 TEMPO 1000 SHSN SCT004 BKN012CB=
METAR UUWW 270830Z 02005G10MPS 1300 1100SW R06/1400D SHSN SCT009
     BKN026CB M04/M06 Q1007 R06/490337 TEMPO 0700 +SHSN BKN015CB=
METAR UUWW 270800Z 02005MPS 1400 1200SW R06/1500D SHSN SCT008
     BKN020CB M04/M06 Q1007 R06/490337 TEMPO 0700 +SHSN BKN015CB=
METAR UUWW 270730Z 02007MPS 1000 0800SW R01/0800D +SHSN SCT007
     BKN020CB M04/M06 Q1007 R01/520240 TEMPO 0700 +SHSN BKN015CB=
SPECI UUWW 270713Z 03007MPS 1400 1100SW R01/1100D SHSN SCT009
     BKN020CB M04/M06 Q1006 R01/520240 TEMPO 0700 +SHSN BKN015CB=
METAR UUWW 270700Z 03008MPS 1700 R01/1500U SHSN SCT008 BKN020CB
     M04/M06 Q1006 R01/520240 TEMPO 0700 +SHSN BKN015CB=
METAR UUWW 270630Z 02007MPS 1600 1400SW R01/1400N SHSN SCT008
     BKN026CB M04/M06 Q1006 R01/520240 TEMPO 0700 +SHSN BKN004
     BKN015CB=
SPECI UUWW 270622Z 02007MPS 1800 R01/1600D SHSN SCT008 BKN022CB
     M04/M06 Q1006 R01/520240 TEMPO 0700 +SHSN BKN004 BKN015CB=
METAR UUWW 270600Z 02006MPS 1400 1200SW R01/1200N SHSN SCT007
     BKN022CB M04/M05 Q1006 R01/520240 TEMPO 0700 +SHSN BKN004
     BKN015CB=
METAR UUWW 270530Z 02007MPS 1200 1000SW R01/1000N SHSN BKN006
     BKN022CB M04/M05 Q1006 R01/520240 TEMPO 0700 +SHSN BKN004
     BKN015CB=
SPECI UUWW 270505Z 02009MPS 1400 1200SW R01/1200U SN BKN008
     BKN030 M03/M05 Q1006 R01/520240 TEMPO 0700 +SHSN BKN004
     BKN015CB=
METAR UUWW 270500Z 02007G13MPS 1500 1300SW R06/1500D SN BKN008
     BKN030 M03/M05 Q1006 R06/550237 TEMPO 0700 +SHSN BKN004
     BKN015CB=
SPECI UUWW 270438Z 01008G13MPS 1500 1200SW R06/1500D SN BKN006
     BKN030 M03/M04 Q1005 R06/290050 TEMPO 0700 +SHSN BKN004
     BKN015CB=
METAR UUWW 270430Z 01008G13MPS 1800 R06/1800D SN BKN005 BKN030
     M03/M04 Q1005 R06/290050 TEMPO 0700 +SHSN BKN004 BKN015CB=
SPECI UUWW 270419Z 01006MPS 1600 1300SW R06/1800U SN BKN004
     BKN030 M02/M03 Q1005 R06/290050 TEMPO 0700 +SHSN BKN004
     BKN015CB=
SPECI UUWW 270409Z 35006MPS 300V020 1000 0900SW R24/1200U +SN
     BKN003 BKN023 M02/M03 Q1005 R24/290050 TEMPO 0700 +SHSN
     BKN004 BKN015CB=
SPECI UUWW 270404Z 28003MPS 220V010 1000 0750SW R24/1000U +SN
     BKN001 BKN026 M01/M02 Q1005 R24/290050 TEMPO 0700 +SHSN
     BKN004 BKN015CB RMK QBB050=
METAR UUWW 270400Z 23002MPS 210V290 0900 0800SW R24/1100D +SN
     VV002 M01/M01 Q1005 R24/290050 TEMPO 0700 +SHSN BKN004
     BKN015CB=
SPECI UUWW 270357Z 22002MPS 1000 0900SW R24/1200D +SN BKN003
     BKN026 00/M01 Q1004 R24/290050 TEMPO 0700 +SHSN BKN004
     BKN015CB=
SPECI UUWW 270341Z 22002MPS 1300 1100W R24/1600D -SN BR BKN003
     BKN023 00/M01 Q1004 R24/290050 TEMPO 0700 +SHSN BKN004
     BKN015CB=
SPECI UUWW 270337Z 22002G07MPS 1400 1200N R24/1900D -SN BR BKN006
     BKN023 00/M01 Q1004 R24/290050 TEMPO 0700 +SHSN BKN004
     BKN015CB=
METAR UUWW 270330Z 23003MPS 1900 -SN BR BKN006 BKN023 00/M01
     Q1004 R24/290050 TEMPO 1100 SN BR BKN004=
SPECI UUWW 270312Z 23002MPS 1900 R24/1900D -SN BR BKN007 OVC026
     00/M01 Q1004 R24/290050 TEMPO 1100 SN BR BKN004=
METAR UUWW 270300Z 22002MPS 2200 -SN BR BKN012 OVC021 00/M01
     Q1004 R24/290050 TEMPO 1100 SN BR BKN004=
METAR ULLI 261230Z 32003MPS 280V360 CAVOK M02/M16 Q1008 R88/190055
NOSIG=
METAR ULLI 261230Z 32003MPS 280V360 CAVOK M02/M16 Q1008
R88/190055 NOSIG=
METAR ULLI 261200Z 36003MPS 320V030 CAVOK M02/M13 Q1008 R88/190055
NOSIG=
METAR ULLI 261200Z 36003MPS 320V030 CAVOK M02/M13 Q1008
R88/190055 NOSIG=
METAR ULLI 261130Z 36003MPS 9999 FEW036 M02/M12 Q1008 R88/190055
NOSIG=
METAR ULLI 261130Z 36003MPS 9999 FEW036 M02/M12 Q1008
R88/190055 NOSIG=
METAR ULLI 261100Z 32004MPS 290V350 9999 FEW036 M02/M11 Q1008
R88/190055 NOSIG=
METAR ULLI 261100Z 32004MPS 290V350 9999 FEW036 M02/M11
Q1008 R88/190055 NOSIG=
METAR ULLI 261030Z 01003MPS 340V040 9999 SCT030 M02/M12 Q1008 WS ALL
RWY R88/190055 NOSIG=
METAR ULLI 261030Z 01003MPS 340V040 9999 SCT030 M02/M12
Q1008 WS ALL RWY R88/190055 NOSIG=
METAR ULLI 261000Z 01003MPS 330V040 9999 SCT030 M02/M12 Q1008
R88/190055 NOSIG=
METAR ULLI 261000Z 01003MPS 330V040 9999 SCT030 M02/M12
Q1008 R88/190055 NOSIG=
METAR ULLI 260930Z 36003MPS 330V050 9999 SCT030 M03/M14 Q1007
R88/510550 NOSIG=
METAR ULLI 260930Z 36003MPS 330V050 9999 SCT030 M03/M14
Q1007 R88/510550 NOSIG=
METAR ULLI 260900Z 01003MPS 330V060 9999 FEW023CB SCT036 M04/M13
Q1007 R88/510550 NOSIG=
METAR ULLI 260900Z 01003MPS 330V060 9999 FEW023CB SCT036
M04/M13 Q1007 R88/510550 NOSIG=


